{"type": "FeatureCollection", "features": [ {"type": "Feature", "properties": {"norad_id": 38498, "name": "FENGYUN 1C DEB", "group": "fengyun-1c-debris", "lat": 49.493503824283124, "lon": -164.6010096142148, "alt_km": 979.5915275355346, "timestamp": "2025-12-09T04:51:47.782846+00:00", "meta": {"OBJECT_NAME": "FENGYUN 1C DEB", "OBJECT_ID": "1999-025ESH", "EPOCH": "2025-12-07T07:48:32.940000", "MEAN_MOTION": 12.96600945, "ECCENTRICITY": 0.05563263, "INCLINATION": 99.6989, "RA_OF_ASC_NODE": 2.1784, "ARG_OF_PERICENTER": 84.4862, "MEAN_ANOMALY": 281.9405, "EPHEMERIS_TYPE": 0, "CLASSIFICATION_TYPE": "U", "NORAD_CAT_ID": 38498, "ELEMENT_SET_NO": 999, "REV_AT_EPOCH": 53673, "BSTAR": 0.0019285441, "MEAN_MOTION_DOT": 1.094e-05, "MEAN_MOTION_DDOT": 0}, "tle": {"line1": "1 38498U 99025ESH 25341.32538125  .00001094  00000+0  19285-2 0  9991", "line2": "2 38498  99.6989   2.1784 0556326  84.4862 281.9405 12.96600945536730"}}, "geometry": {"type": "Point", "coordinates": [-164.6010096142148, 49.493503824283124]}}, {"type": "Feature", "properties": {"norad_id": 38510, "name": "FENGYUN 1C DEB", "group": "fengyun-1c-debris", "lat": -48.606924174775834, "lon": 162.52911899726763, "alt_km": 828.8612434598344, "timestamp": "2025-12-09T04:51:47.782856+00:00", "meta": {"OBJECT_NAME": "FENGYUN 1C DEB", "OBJECT_ID": "1999-025ESV", "EPOCH": "2025-12-07T07:36:41.393664", "MEAN_MOTION": 14.13304798, "ECCENTRICITY": 0.00984571, "INCLINATION": 98.6019, "RA_OF_ASC_NODE": 350.6048, "ARG_OF_PERICENTER": 165.571, "MEAN_ANOMALY": 194.8311, "EPHEMERIS_TYPE": 0, "CLASSIFICATION_TYPE": "U", "NORAD_CAT_ID": 38510, "ELEMENT_SET_NO": 999, "REV_AT_EPOCH": 88593, "BSTAR": 0.00096053844, "MEAN_MOTION_DOT": 1.845e-05, "MEAN_MOTION_DDOT": 0}, "tle": {"line1": "1 38510U 99025ESV 25341.31714576  .00001845  00000+0  96054-3 0  9995", "line2": "2 38510  98.6019 350.6048 0098457 165.5710 194.8311 14.13304798885936"}}, "geometry": {"type": "Point", "coordinates": [162.52911899726763, -48.606924174775834]}}, {"type": "Feature", "properties": {"norad_id": 38512, "name": "FENGYUN 1C DEB", "group": "fengyun-1c-debris", "lat": 47.023591875129156, "lon": -143.6463769511654, "alt_km": 912.8331998712492, "timestamp": "2025-12-09T04:51:47.782866+00:00", "meta": {"OBJECT_NAME": "FENGYUN 1C DEB", "OBJECT_ID": "1999-025ESX", "EPOCH": "2025-12-07T03:41:42.572544", "MEAN_MOTION": 13.73960219, "ECCENTRICITY": 0.02263449, "INCLINATION": 98.3801, "RA_OF_ASC_NODE": 223.6575, "ARG_OF_PERICENTER": 120.2765, "MEAN_ANOMALY": 242.0997, "EPHEMERIS_TYPE": 0, "CLASSIFICATION_TYPE": "U", "NORAD_CAT_ID": 38512, "ELEMENT_SET_NO": 999, "REV_AT_EPOCH": 59493, "BSTAR": 0.0015630573, "MEAN_MOTION_DOT": 1.73e-05, "MEAN_MOTION_DDOT": 0}, "tle": {"line1": "1 38512U 99025ESX 25341.15396496  .00001730  00000+0  15631-2 0  9990", "line2": "2 38512  98.3801 223.6575 0226344 120.2765 242.0997 13.73960219594938"}}, "geometry": {"type": "Point", "coordinates": [-143.6463769511654, 47.023591875129156]}}, {"type": "Feature", "properties": {"norad_id": 38514, "name": "FENGYUN 1C DEB", "group": "fengyun-1c-debris", "lat": -39.32621892311894, "lon": 19.783584964005954, "alt_km": 756.4822635906303, "timestamp": "2025-12-09T04:51:47.782876+00:00", "meta": {"OBJECT_NAME": "FENGYUN 1C DEB", "OBJECT_ID": "1999-025ESZ", "EPOCH": "2025-12-05T21:18:35.296992", "MEAN_MOTION": 14.15398664, "ECCENTRICITY": 0.02716454, "INCLINATION": 98.0566, "RA_OF_ASC_NODE": 10.1192, "ARG_OF_PERICENTER": 33.8686, "MEAN_ANOMALY": 327.9511, "EPHEMERIS_TYPE": 0, "CLASSIFICATION_TYPE": "U", "NORAD_CAT_ID": 38514, "ELEMENT_SET_NO": 999, "REV_AT_EPOCH": 87899, "BSTAR": 0.0084481193, "MEAN_MOTION_DOT": 0.00023594, "MEAN_MOTION_DDOT": 0}, "tle": {"line1": "1 38514U 99025ESZ 25339.88790853  .00023594  00000+0  84481-2 0  9995", "line2": "2 38514  98.0566  10.1192 0271645  33.8686 327.9511 14.15398664878996"}}, "geometry": {"type": "Point", "coordinates": [19.783584964005954, -39.32621892311894]}}, {"type": "Feature", "properties": {"norad_id": 38516, "name": "FENGYUN 1C DEB", "group": "fengyun-1c-debris", "lat": 59.77339522664003, "lon": -47.567852325907374, "alt_km": 750.6819119074944, "timestamp": "2025-12-09T04:51:47.782886+00:00", "meta": {"OBJECT_NAME": "FENGYUN 1C DEB", "OBJECT_ID": "1999-025ETB", "EPOCH": "2025-12-08T16:51:24.952032", "MEAN_MOTION": 14.34044661, "ECCENTRICITY": 0.0111366, "INCLINATION": 98.4419, "RA_OF_ASC_NODE": 326.711, "ARG_OF_PERICENTER": 137.1935, "MEAN_ANOMALY": 223.7989, "EPHEMERIS_TYPE": 0, "CLASSIFICATION_TYPE": "U", "NORAD_CAT_ID": 38516, "ELEMENT_SET_NO": 999, "REV_AT_EPOCH": 84815, "BSTAR": 0.0002029, "MEAN_MOTION_DOT": 5.64e-06, "MEAN_MOTION_DDOT": 0}, "tle": {"line1": "1 38516U 99025ETB 25342.70237213  .00000564  00000+0  20290-3 0  9999", "line2": "2 38516  98.4419 326.7110 0111366 137.1935 223.7989 14.34044661848156"}}, "geometry": {"type": "Point", "coordinates": [-47.567852325907374, 59.77339522664003]}}, {"type": "Feature", "properties": {"norad_id": 38717, "name": "FENGYUN 1C DEB", "group": "fengyun-1c-debris", "lat": 75.96710535825021, "lon": -141.5046391980225, "alt_km": 822.7853859821744, "timestamp": "2025-12-09T04:51:47.782896+00:00", "meta": {"OBJECT_NAME": "FENGYUN 1C DEB", "OBJECT_ID": "1999-025ETJ", "EPOCH": "2025-12-07T23:46:50.838816", "MEAN_MOTION": 14.19881201, "ECCENTRICITY": 0.00569464, "INCLINATION": 99.1587, "RA_OF_ASC_NODE": 357.0411, "ARG_OF_PERICENTER": 7.7496, "MEAN_ANOMALY": 21.6196, "EPHEMERIS_TYPE": 0, "CLASSIFICATION_TYPE": "U", "NORAD_CAT_ID": 38717, "ELEMENT_SET_NO": 999, "REV_AT_EPOCH": 58359, "BSTAR": 0.0023838739, "MEAN_MOTION_DOT": 5.097e-05, "MEAN_MOTION_DDOT": 0}, "tle": {"line1": "1 38717U 99025ETJ 25341.99086619  .00005097  00000+0  23839-2 0  9991", "line2": "2 38717  99.1587 357.0411 0056946   7.7496  21.6196 14.19881201583591"}}, "geometry": {"type": "Point", "coordinates": [-141.5046391980225, 75.96710535825021]}}, {"type": "Feature", "properties": {"norad_id": 38722, "name": "FENGYUN 1C DEB", "group": "fengyun-1c-debris", "lat": 1.6130291929897902, "lon": 80.81484999764929, "alt_km": 725.0491275882605, "timestamp": "2025-12-09T04:51:47.782906+00:00", "meta": {"OBJECT_NAME": "FENGYUN 1C DEB", "OBJECT_ID": "1999-025ETP", "EPOCH": "2025-12-07T11:41:09.627072", "MEAN_MOTION": 14.58179572, "ECCENTRICITY": 0.01480338, "INCLINATION": 99.3541, "RA_OF_ASC_NODE": 79.152, "ARG_OF_PERICENTER": 110.7247, "MEAN_ANOMALY": 250.9886, "EPHEMERIS_TYPE": 0, "CLASSIFICATION_TYPE": "U", "NORAD_CAT_ID": 38722, "ELEMENT_SET_NO": 999, "REV_AT_EPOCH": 70387, "BSTAR": 0.0047477196, "MEAN_MOTION_DOT": 0.00025504, "MEAN_MOTION_DDOT": 0}, "tle": {"line1": "1 38722U 99025ETP 25341.48691698  .00025504  00000+0  47477-2 0  9999", "line2": "2 38722  99.3541  79.1520 0148033 110.7247 250.9886 14.58179572703872"}}, "geometry": {"type": "Point", "coordinates": [80.81484999764929, 1.6130291929897902]}}, {"type": "Feature", "properties": {"norad_id": 38724, "name": "FENGYUN 1C DEB", "group": "fengyun-1c-debris", "lat": 61.5858403079732, "lon": -171.2455632466987, "alt_km": 762.0938349354383, "timestamp": "2025-12-09T04:51:47.782916+00:00", "meta": {"OBJECT_NAME": "FENGYUN 1C DEB", "OBJECT_ID": "1999-025ETR", "EPOCH": "2025-11-13T12:10:01.066656", "MEAN_MOTION": 14.14277973, "ECCENTRICITY": 0.012547, "INCLINATION": 98.7406, "RA_OF_ASC_NODE": 327.0705, "ARG_OF_PERICENTER": 154.7752, "MEAN_ANOMALY": 205.962, "EPHEMERIS_TYPE": 0, "CLASSIFICATION_TYPE": "U", "NORAD_CAT_ID": 38724, "ELEMENT_SET_NO": 999, "REV_AT_EPOCH": 56211, "BSTAR": 0.0084973, "MEAN_MOTION_DOT": 0.00017498, "MEAN_MOTION_DDOT": 0}, "tle": {"line1": "1 38724U 99025ETR 25317.50695679  .00017498  00000+0  84973-2 0  9995", "line2": "2 38724  98.7406 327.0705 0125470 154.7752 205.9620 14.14277973562118"}}, "geometry": {"type": "Point", "coordinates": [-171.2455632466987, 61.5858403079732]}}, {"type": "Feature", "properties": {"norad_id": 38725, "name": "FENGYUN 1C DEB", "group": "fengyun-1c-debris", "lat": 66.5961277639875, "lon": 87.12898864692586, "alt_km": 766.1941612788896, "timestamp": "2025-12-09T04:51:47.782927+00:00", "meta": {"OBJECT_NAME": "FENGYUN 1C DEB", "OBJECT_ID": "1999-025ETS", "EPOCH": "2025-12-08T01:54:53.946720", "MEAN_MOTION": 14.4269685, "ECCENTRICITY": 0.00343724, "INCLINATION": 98.8732, "RA_OF_ASC_NODE": 107.1185, "ARG_OF_PERICENTER": 270.29, "MEAN_ANOMALY": 89.435, "EPHEMERIS_TYPE": 0, "CLASSIFICATION_TYPE": "U", "NORAD_CAT_ID": 38725, "ELEMENT_SET_NO": 999, "REV_AT_EPOCH": 73285, "BSTAR": 0.0035868428, "MEAN_MOTION_DOT": 0.00011993, "MEAN_MOTION_DDOT": 0}, "tle": {"line1": "1 38725U 99025ETS 25342.07979105  .00011993  00000+0  35868-2 0  9998", "line2": "2 38725  98.8732 107.1185 0034372 270.2900  89.4350 14.42696850732855"}}, "geometry": {"type": "Point", "coordinates": [87.12898864692586, 66.5961277639875]}}, {"type": "Feature", "properties": {"norad_id": 38726, "name": "FENGYUN 1C DEB", "group": "fengyun-1c-debris", "lat": -6.315916254799776, "lon": 7.656560277754668, "alt_km": 576.5314510635826, "timestamp": "2025-12-09T04:51:47.782937+00:00", "meta": {"OBJECT_NAME": "FENGYUN 1C DEB", "OBJECT_ID": "1999-025ETT", "EPOCH": "2025-12-08T19:18:00.684576", "MEAN_MOTION": 15.02174528, "ECCENTRICITY": 0.0023326, "INCLINATION": 99.1364, "RA_OF_ASC_NODE": 6.1671, "ARG_OF_PERICENTER": 137.4711, "MEAN_ANOMALY": 222.8321, "EPHEMERIS_TYPE": 0, "CLASSIFICATION_TYPE": "U", "NORAD_CAT_ID": 38726, "ELEMENT_SET_NO": 999, "REV_AT_EPOCH": 69796, "BSTAR": 0.0084231, "MEAN_MOTION_DOT": 0.00113178, "MEAN_MOTION_DDOT": 0}, "tle": {"line1": "1 38726U 99025ETT 25342.80417459  .00113178  00000+0  84231-2 0  9995", "line2": "2 38726  99.1364   6.1671 0023326 137.4711 222.8321 15.02174528697963"}}, "geometry": {"type": "Point", "coordinates": [7.656560277754668, -6.315916254799776]}}]}